[
{"type":"Feature", "properties":{"path_id":"2","link_id":"93425487","offset":"2597305","lane_id":"3","timestamp":"2856997170305","Heading":"0.102863","Speed":"29.164284","LocStatus":"0","GeoFenceJudgeStatus":"1","Lon":"1343204822","Lat":"469073381","GeoFenceJudgeType":"0", "map_route_list":"", "efm_counter":"1", "position_counter":"55548" },"geometry":{"type":"Point","coordinates":[112.586128,  39.317277]}},
{"type":"Feature", "properties":{"path_id":"2","link_id":"93425487","offset":"2597447","lane_id":"3","timestamp":"2857057105462","Heading":"0.102121","Speed":"29.155485","LocStatus":"0","GeoFenceJudgeStatus":"1","Lon":"1343204842","Lat":"469073532","GeoFenceJudgeType":"0", "map_route_list":"", "efm_counter":"2", "position_counter":"55549" },"geometry":{"type":"Point","coordinates":[112.586129,  39.317289]}},
{"type":"Feature", "properties":{"path_id":"2","link_id":"93425487","offset":"2597590","lane_id":"3","timestamp":"2857104466807","Heading":"0.101385","Speed":"29.149776","LocStatus":"0","GeoFenceJudgeStatus":"1","Lon":"1343204862","Lat":"469073685","GeoFenceJudgeType":"0", "map_route_list":"", "efm_counter":"3", "position_counter":"55550" },"geometry":{"type":"Point","coordinates":[112.586131,  39.317302]}},
{"type":"Feature", "properties":{"path_id":"2","link_id":"93425487","offset":"2597733","lane_id":"3","timestamp":"2857153275976","Heading":"0.100616","Speed":"29.137129","LocStatus":"0","GeoFenceJudgeStatus":"1","Lon":"1343204883","Lat":"469073837","GeoFenceJudgeType":"0", "map_route_list":"93425487,93425458,93425476,93425469,93425474,106630202,106630201,93500092,93500115", "efm_counter":"4", "position_counter":"55551" },"geometry":{"type":"Point","coordinates":[112.586133,  39.317315]}},
{"type":"Feature", "properties":{"path_id":"2","link_id":"93425487","offset":"2597904","lane_id":"3","timestamp":"2857207164358","Heading":"0.099716","Speed":"29.119604","LocStatus":"0","GeoFenceJudgeStatus":"1","Lon":"1343204907","Lat":"469074020","GeoFenceJudgeType":"0", "map_route_list":"93425487,93425458,93425476,93425469,93425474,106630202,106630201,93500092,93500115", "efm_counter":"5", "position_counter":"55552" },"geometry":{"type":"Point","coordinates":[112.586135,  39.317330]}},
{"type":"Feature", "properties":{"path_id":"2","link_id":"93425487","offset":"2598023","lane_id":"3","timestamp":"2857257344619","Heading":"0.099128","Speed":"29.117445","LocStatus":"0","GeoFenceJudgeStatus":"1","Lon":"1343204923","Lat":"469074148","GeoFenceJudgeType":"0", "map_route_list":"93425487,93425458,93425476,93425469,93425474,106630202,106630201,93500092,93500115", "efm_counter":"6", "position_counter":"55553" },"geometry":{"type":"Point","coordinates":[112.586136,  39.317341]}},
{"type":"Feature", "properties":{"path_id":"2","link_id":"93425487","offset":"2598175","lane_id":"3","timestamp":"2857315015407","Heading":"0.098383","Speed":"29.110830","LocStatus":"0","GeoFenceJudgeStatus":"1","Lon":"1343204944","Lat":"469074309","GeoFenceJudgeType":"0", "map_route_list":"93425487,93425458,93425476,93425469,93425474,106630202,106630201,93500092,93500115", "efm_counter":"7", "position_counter":"55554" },"geometry":{"type":"Point","coordinates":[112.586138,  39.317354]}},
{"type":"Feature", "properties":{"path_id":"2","link_id":"93425487","offset":"2598350","lane_id":"3","timestamp":"2857367700515","Heading":"0.097530","Speed":"29.102406","LocStatus":"0","GeoFenceJudgeStatus":"1","Lon":"1343204967","Lat":"469074496","GeoFenceJudgeType":"0", "map_route_list":"93425487,93425458,93425476,93425469,93425474,106630202,106630201,93500092,93500115", "efm_counter":"8", "position_counter":"55555" },"geometry":{"type":"Point","coordinates":[112.586140,  39.317370]}},
{"type":"Feature", "properties":{"path_id":"2","link_id":"93425487","offset":"2598524","lane_id":"3","timestamp":"2857412290453","Heading":"0.096795","Speed":"29.092056","LocStatus":"0","GeoFenceJudgeStatus":"1","Lon":"1343204990","Lat":"469074682","GeoFenceJudgeType":"0", "map_route_list":"93425487,93425458,93425476,93425469,93425474,106630202,106630201,93500092,93500115", "efm_counter":"9", "position_counter":"55556" },"geometry":{"type":"Point","coordinates":[112.586142,  39.317386]}},
{"type":"Feature", "properties":{"path_id":"2","link_id":"93425487","offset":"2598669","lane_id":"3","timestamp":"2857465358721","Heading":"0.096225","Speed":"29.082335","LocStatus":"0","GeoFenceJudgeStatus":"1","Lon":"1343205010","Lat":"469074837","GeoFenceJudgeType":"0", "map_route_list":"93425487,93425458,93425476,93425469,93425474,106630202,106630201,93500092,93500115", "efm_counter":"10", "position_counter":"55557" },"geometry":{"type":"Point","coordinates":[112.586143,  39.317399]}},
{"type":"Feature", "properties":{"path_id":"2","link_id":"93425487","offset":"2598811","lane_id":"3","timestamp":"2857515737841","Heading":"0.095672","Speed":"29.075193","LocStatus":"0","GeoFenceJudgeStatus":"1","Lon":"1343205029","Lat":"469074989","GeoFenceJudgeType":"0", "map_route_list":"93425487,93425458,93425476,93425469,93425474,106630202,106630201,93500092,93500115", "efm_counter":"11", "position_counter":"55558" },"geometry":{"type":"Point","coordinates":[112.586145,  39.317411]}},
{"type":"Feature", "properties":{"path_id":"2","link_id":"93425487","offset":"2598961","lane_id":"3","timestamp":"2857565219308","Heading":"0.095050","Speed":"29.068893","LocStatus":"0","GeoFenceJudgeStatus":"1","Lon":"1343205048","Lat":"469075149","GeoFenceJudgeType":"0", "map_route_list":"93425487,93425458,93425476,93425469,93425474,106630202,106630201,93500092,93500115", "efm_counter":"12", "position_counter":"55559" },"geometry":{"type":"Point","coordinates":[112.586147,  39.317425]}},
{"type":"Feature", "properties":{"path_id":"2","link_id":"93425487","offset":"2599105","lane_id":"3","timestamp":"2857616362875","Heading":"0.094468","Speed":"29.060352","LocStatus":"0","GeoFenceJudgeStatus":"1","Lon":"1343205067","Lat":"469075302","GeoFenceJudgeType":"0", "map_route_list":"93425487,93425458,93425476,93425469,93425474,106630202,106630201,93500092,93500115", "efm_counter":"13", "position_counter":"55560" },"geometry":{"type":"Point","coordinates":[112.586148,  39.317438]}},
{"type":"Feature", "properties":{"path_id":"2","link_id":"93425487","offset":"2599256","lane_id":"3","timestamp":"2857667277044","Heading":"0.093902","Speed":"29.057890","LocStatus":"0","GeoFenceJudgeStatus":"1","Lon":"1343205086","Lat":"469075465","GeoFenceJudgeType":"0", "map_route_list":"93425487,93425458,93425476,93425469,93425474,106630202,106630201,93500092,93500115", "efm_counter":"14", "position_counter":"55561" },"geometry":{"type":"Point","coordinates":[112.586150,  39.317451]}},
{"type":"Feature", "properties":{"path_id":"2","link_id":"93425487","offset":"2599401","lane_id":"3","timestamp":"2857723534779","Heading":"0.093312","Speed":"29.055391","LocStatus":"0","GeoFenceJudgeStatus":"1","Lon":"1343205105","Lat":"469075619","GeoFenceJudgeType":"0", "map_route_list":"93425487,93425458,93425476,93425469,93425474,106630202,106630201,93500092,93500115", "efm_counter":"15", "position_counter":"55562" },"geometry":{"type":"Point","coordinates":[112.586151,  39.317464]}},
{"type":"Feature", "properties":{"path_id":"2","link_id":"93425487","offset":"2599552","lane_id":"3","timestamp":"2857772672248","Heading":"0.092662","Speed":"29.050850","LocStatus":"0","GeoFenceJudgeStatus":"1","Lon":"1343205124","Lat":"469075780","GeoFenceJudgeType":"0", "map_route_list":"93425487,93425458,93425476,93425469,93425474,106630202,106630201,93500092,93500115", "efm_counter":"16", "position_counter":"55563" },"geometry":{"type":"Point","coordinates":[112.586153,  39.317478]}},
{"type":"Feature", "properties":{"path_id":"2","link_id":"93425487","offset":"2599723","lane_id":"3","timestamp":"2857824237076","Heading":"0.091957","Speed":"29.048882","LocStatus":"0","GeoFenceJudgeStatus":"1","Lon":"1343205145","Lat":"469075964","GeoFenceJudgeType":"0", "map_route_list":"93425487,93425458,93425476,93425469,93425474,106630202,106630201,93500092,93500115", "efm_counter":"17", "position_counter":"55564" },"geometry":{"type":"Point","coordinates":[112.586155,  39.317493]}},
{"type":"Feature", "properties":{"path_id":"2","link_id":"93425487","offset":"2599840","lane_id":"3","timestamp":"2857871417196","Heading":"0.091448","Speed":"29.047085","LocStatus":"0","GeoFenceJudgeStatus":"1","Lon":"1343205160","Lat":"469076088","GeoFenceJudgeType":"0", "map_route_list":"93425487,93425458,93425476,93425469,93425474,106630202,106630201,93500092,93500115", "efm_counter":"18", "position_counter":"55565" },"geometry":{"type":"Point","coordinates":[112.586156,  39.317503]}},
{"type":"Feature", "properties":{"path_id":"2","link_id":"93425487","offset":"2600008","lane_id":"3","timestamp":"2857923717830","Heading":"0.090736","Speed":"29.040710","LocStatus":"0","GeoFenceJudgeStatus":"1","Lon":"1343205181","Lat":"469076268","GeoFenceJudgeType":"0", "map_route_list":"93425487,93425458,93425476,93425469,93425474,106630202,106630201,93500092,93500115", "efm_counter":"19", "position_counter":"55566" },"geometry":{"type":"Point","coordinates":[112.586158,  39.317519]}},
{"type":"Feature", "properties":{"path_id":"2","link_id":"93425487","offset":"2600153","lane_id":"3","timestamp":"2857976767695","Heading":"0.090156","Speed":"29.037041","LocStatus":"0","GeoFenceJudgeStatus":"1","Lon":"1343205199","Lat":"469076423","GeoFenceJudgeType":"0", "map_route_list":"93425487,93425458,93425476,93425469,93425474,106630202,106630201,93500092,93500115", "efm_counter":"20", "position_counter":"55567" },"geometry":{"type":"Point","coordinates":[112.586159,  39.317532]}},
{"type":"Feature", "properties":{"path_id":"2","link_id":"93425487","offset":"2600297","lane_id":"3","timestamp":"2858033454904","Heading":"0.089615","Speed":"29.032507","LocStatus":"0","GeoFenceJudgeStatus":"1","Lon":"1343205217","Lat":"469076577","GeoFenceJudgeType":"0", "map_route_list":"93425487,93425458,93425476,93425469,93425474,106630202,106630201,93500092,93500115", "efm_counter":"21", "position_counter":"55568" },"geometry":{"type":"Point","coordinates":[112.586161,  39.317544]}},
{"type":"Feature", "properties":{"path_id":"2","link_id":"93425487","offset":"2600449","lane_id":"3","timestamp":"2858084366495","Heading":"0.089096","Speed":"29.026468","LocStatus":"0","GeoFenceJudgeStatus":"1","Lon":"1343205236","Lat":"469076739","GeoFenceJudgeType":"0", "map_route_list":"93425487,93425458,93425476,93425469,93425474,106630202,106630201,93500092,93500115", "efm_counter":"22", "position_counter":"55569" },"geometry":{"type":"Point","coordinates":[112.586162,  39.317558]}},
{"type":"Feature", "properties":{"path_id":"2","link_id":"93425487","offset":"2600594","lane_id":"3","timestamp":"2858133497485","Heading":"0.088545","Speed":"29.024920","LocStatus":"0","GeoFenceJudgeStatus":"1","Lon":"1343205254","Lat":"469076894","GeoFenceJudgeType":"0", "map_route_list":"93425487,93425458,93425476,93425469,93425474,106630202,106630201,93500092,93500115,93500093,93500111,93500134,107855240", "efm_counter":"23", "position_counter":"55570" },"geometry":{"type":"Point","coordinates":[112.586164,  39.317571]}},
{"type":"Feature", "properties":{"path_id":"2","link_id":"93425487","offset":"2600739","lane_id":"3","timestamp":"2858182353691","Heading":"0.087909","Speed":"29.014380","LocStatus":"0","GeoFenceJudgeStatus":"1","Lon":"1343205272","Lat":"469077049","GeoFenceJudgeType":"0", "map_route_list":"93425487,93425458,93425476,93425469,93425474,106630202,106630201,93500092,93500115,93500093,93500111,93500134,107855240", "efm_counter":"24", "position_counter":"55571" },"geometry":{"type":"Point","coordinates":[112.586165,  39.317584]}},
{"type":"Feature", "properties":{"path_id":"2","link_id":"93425487","offset":"2600883","lane_id":"3","timestamp":"2858233810501","Heading":"0.087313","Speed":"29.009815","LocStatus":"0","GeoFenceJudgeStatus":"1","Lon":"1343205289","Lat":"469077204","GeoFenceJudgeType":"0", "map_route_list":"93425487,93425458,93425476,93425469,93425474,106630202,106630201,93500092,93500115,93500093,93500111,93500134,107855240", "efm_counter":"25", "position_counter":"55572" },"geometry":{"type":"Point","coordinates":[112.586167,  39.317597]}},
{"type":"Feature", "properties":{"path_id":"2","link_id":"93425487","offset":"2601054","lane_id":"3","timestamp":"2858285715187","Heading":"0.086661","Speed":"29.002756","LocStatus":"0","GeoFenceJudgeStatus":"1","Lon":"1343205310","Lat":"469077386","GeoFenceJudgeType":"0", "map_route_list":"93425487,93425458,93425476,93425469,93425474,106630202,106630201,93500092,93500115,93500093,93500111,93500134,107855240", "efm_counter":"26", "position_counter":"55573" },"geometry":{"type":"Point","coordinates":[112.586168,  39.317612]}},
{"type":"Feature", "properties":{"path_id":"2","link_id":"93425474","offset":"2766960","lane_id":"2","timestamp":"2917005924416","Heading":"-0.000143","Speed":"16.162609","LocStatus":"0","GeoFenceJudgeStatus":"0","Lon":"1343206645","Lat":"469255780","GeoFenceJudgeType":"14", "map_route_list":"93425474,106630202,106630201,93500092,93500115,93500093,93500111,93500134,107855240,93500116,93500137,93500096,106526921,106526368,93500098,93500080,93500140,93500084,93414941,93414918", "efm_counter":"1172", "position_counter":"56719" },"geometry":{"type":"Point","coordinates":[112.586280,  39.332565]}}
]
